NORAD_CAT_ID,OBJECT_NAME,OBJECT_TYPE,EPOCH,MEAN_MOTION,ECCENTRICITY,INCLINATION,RA_OF_ASC_NODE,ARG_OF_PERICENTER,MEAN_ANOMALY,BSTAR,MEAN_MOTION_DOT,MEAN_MOTION_DDOT,TLE_LINE0,TLE_LINE1,TLE_LINE2,SEMIMAJOR_AXIS,PERIOD,APOGEE,PERIGEE,DECAYED
49427.0,STARLINK-3131,PAYLOAD,2023-03-01 12:22:36,15.08792192,0.000152,53.2156,145.9505,91.3112,268.8054,0.0011526,0.00018079,0.0,0 STARLINK-3131,1 49427U 21104V   23060.51570320  .00018079  00000-0  11526-2 0  9990,2 49427  53.2156 145.9505 0001520  91.3112 268.8054 15.08792192 71942,6918.027,95.441,540.943,538.84,0.0
49427.0,STARLINK-3131,PAYLOAD,2023-03-02 10:38:01,15.08862345,0.0001577,53.2157,141.7881,88.1351,271.9822,0.0021984,0.00034895,0.0,0 STARLINK-3131,1 49427U 21104V   23061.44306892  .00034895  00000-0  21984-2 0  9997,2 49427  53.2157 141.7881 0001577  88.1351 271.9822 15.08862345 72087,6917.812,95.436,540.768,538.586,0.0
49427.0,STARLINK-3131,PAYLOAD,2023-03-03 08:53:23,15.08879785,0.0001802,53.2162,137.6261,96.4964,263.6234,0.0011651,0.00018323,0.0,0 STARLINK-3131,1 49427U 21104V   23062.37041398  .00018323  00000-0  11651-2 0  9995,2 49427  53.2162 137.6261 0001802  96.4964 263.6234 15.08879785 73310,6917.759,95.435,540.87,538.377,0.0
49427.0,STARLINK-3131,PAYLOAD,2023-03-03 10:28:46,15.08883861,0.0001817,53.2161,137.3283,96.4492,263.6707,0.0011181,0.00017573,0.0,0 STARLINK-3131,1 49427U 21104V   23062.43665158  .00017573  00000-0  11181-2 0  9992,2 49427  53.2161 137.3283 0001817  96.4492 263.6707 15.08883861 72237,6917.746,95.435,540.868,538.354,0.0
49427.0,STARLINK-3131,PAYLOAD,2023-03-03 21:36:28,15.08874414,0.0001828,53.2155,135.248,85.1839,274.9362,0.00069076,0.00010733,0.0,0 STARLINK-3131,1 49427U 21104V   23062.90032629  .00010733  00000-0  69076-3 0  9993,2 49427  53.2155 135.2480 0001828  85.1839 274.9362 15.08874414 73392,6917.775,95.435,540.905,538.376,0.0
49427.0,STARLINK-3131,PAYLOAD,2023-03-04 05:33:23,15.08840057,0.0001092,53.216,133.7601,103.2185,256.8929,-0.0005697,-9.343e-05,0.0,0 STARLINK-3131,1 49427U 21104V   23063.23152620 -.00009343  00000-0 -56970-3 0  9990,2 49427  53.2160 133.7601 0001092 103.2185 256.8929 15.08840057 73445,6917.88,95.438,540.501,538.99,0.0
49427.0,STARLINK-3131,PAYLOAD,2023-03-04 08:44:10,15.08845446,0.0001195,53.2164,133.1658,104.1939,255.9186,-0.00012687,-2.307e-05,0.0,0 STARLINK-3131,1 49427U 21104V   23063.36400626 -.00002307  00000-0 -12687-3 0  9996,2 49427  53.2164 133.1658 0001195 104.1939 255.9186 15.08845446 72379,6917.864,95.437,540.555,538.902,0.0
49427.0,STARLINK-3131,PAYLOAD,2023-03-04 21:27:15,15.08841122,0.0001107,53.2155,130.7854,112.6113,247.4996,0.00071867,0.00011169,0.0,0 STARLINK-3131,1 49427U 21104V   23063.89393050  .00011169  00000-0  71867-3 0  9995,2 49427  53.2155 130.7854 0001107 112.6113 247.4996 15.08841122 72452,6917.877,95.437,540.508,538.976,0.0
49427.0,STARLINK-3131,PAYLOAD,2023-03-05 13:21:07,15.08842518,8.96e-05,53.2149,127.8121,114.0695,246.0391,0.0016078,0.00025394,0.0,0 STARLINK-3131,1 49427U 21104V   23064.55633634  .00025394  00000-0  16078-2 0  9991,2 49427  53.2149 127.8121 0000896 114.0695 246.0391 15.08842518 73640,6917.873,95.437,540.358,539.118,0.0
49427.0,STARLINK-3131,PAYLOAD,2023-03-06 05:14:58,15.08864391,9.79e-05,53.2159,124.8396,95.3517,264.7587,0.0021569,0.00034229,0.0,0 STARLINK-3131,1 49427U 21104V   23065.21873747  .00034229  00000-0  21569-2 0  9994,2 49427  53.2159 124.8396 0000979  95.3517 264.7587 15.08864391 73746,6917.806,95.436,540.348,538.994,0.0
49427.0,STARLINK-3131,PAYLOAD,2023-03-06 21:08:49,15.08860494,0.0001006,53.2155,121.8638,98.299,261.8116,0.00073878,0.00011496,0.0,0 STARLINK-3131,1 49427U 21104V   23065.88113251  .00011496  00000-0  73878-3 0  9996,2 49427  53.2155 121.8638 0001006  98.2990 261.8116 15.08860494 72753,6917.818,95.436,540.379,538.987,0.0
49427.0,STARLINK-3131,PAYLOAD,2023-03-07 03:30:22,15.08833059,0.0001381,53.2144,120.6732,114.8837,245.2299,0.0007795,0.00012137,0.0,0 STARLINK-3131,1 49427U 21104V   23066.14609882  .00012137  00000-0  77950-3 0  9994,2 49427  53.2144 120.6732 0001381 114.8837 245.2299 15.08833059 73884,6917.902,95.438,540.722,538.811,0.0
49427.0,STARLINK-3131,PAYLOAD,2023-03-07 09:51:55,15.0884439,0.0001527,53.2146,119.4852,96.4002,263.7164,0.0020103,0.00031855,0.0,0 STARLINK-3131,1 49427U 21104V   23066.41106009  .00031855  00000-0  20103-2 0  9992,2 49427  53.2146 119.4852 0001527  96.4002 263.7164 15.08844390 73927,6917.867,95.437,540.788,538.676,0.0
49427.0,STARLINK-3131,PAYLOAD,2023-03-07 20:59:38,15.08846048,0.0001948,53.2143,117.403,80.9889,279.1324,0.0016156,0.00025522,0.0,0 STARLINK-3131,1 49427U 21104V   23066.87474575  .00025522  00000-0  16156-2 0  9995,2 49427  53.2143 117.4030 0001948  80.9889 279.1324 15.08846048 72906,6917.862,95.437,541.075,538.379,0.0
49427.0,STARLINK-3131,PAYLOAD,2023-03-08 03:21:10,15.08840384,0.0001948,53.2143,116.2117,104.7423,255.3785,0.0012235,0.00019238,0.0,0 STARLINK-3131,1 49427U 21104V   23067.13970629  .00019238  00000-0  12235-2 0  9997,2 49427  53.2143 116.2117 0001948 104.7423 255.3785 15.08840384 74038,6917.879,95.438,541.092,538.397,0.0
49427.0,STARLINK-3131,PAYLOAD,2023-03-08 09:42:43,15.08838918,0.000167,53.2139,115.0241,91.0328,269.0855,0.00043979,6.718e-05,0.0,0 STARLINK-3131,1 49427U 21104V   23067.40466665  .00006718  00000-0  43979-3 0  9996,2 49427  53.2139 115.0241 0001670  91.0328 269.0855 15.08838918 74076,6917.884,95.438,540.904,538.593,0.0
49427.0,STARLINK-3131,PAYLOAD,2023-03-09 12:44:15,15.08864234,0.0001833,53.2143,109.966,101.7548,258.365,0.00075476,0.00011752,0.0,0 STARLINK-3131,1 49427U 21104V   23068.53073797  .00011752  00000-0  75476-3 0  9992,2 49427  53.2143 109.9660 0001833 101.7548 258.3650 15.08864234 74245,6917.806,95.436,540.939,538.403,0.0
49427.0,STARLINK-3131,PAYLOAD,2023-03-10 09:24:16,15.08865426,0.0001346,53.2138,106.1035,95.3827,264.7319,0.00047449,7.277e-05,0.0,0 STARLINK-3131,1 49427U 21104V   23069.39185199  .00007277  00000-0  47449-3 0  9993,2 49427  53.2138 106.1035 0001346  95.3827 264.7319 15.08865426 74372,6917.803,95.436,540.599,538.737,0.0
49427.0,STARLINK-3131,PAYLOAD,2023-03-10 18:56:35,15.0882953,0.0002374,53.2145,104.3148,95.6448,264.4815,-0.00018655,-3.255e-05,0.0,0 STARLINK-3131,1 49427U 21104V   23069.78929780 -.00003255  00000-0 -18655-3 0  9999,2 49427  53.2145 104.3148 0002374  95.6448 264.4815 15.08829530 74430,6917.912,95.438,541.42,538.135,0.0
49427.0,STARLINK-3131,PAYLOAD,2023-03-11 07:39:40,15.08824351,0.0002074,53.2151,101.938,123.1725,236.9466,-0.00019215,-3.344e-05,0.0,0 STARLINK-3131,1 49427U 21104V   23070.31922396 -.00003344  00000-0 -19215-3 0  9998,2 49427  53.2151 101.9380 0002074 123.1725 236.9466 15.08824351 73420,6917.928,95.439,541.228,538.358,0.0
49427.0,STARLINK-3131,PAYLOAD,2023-03-12 01:08:55,15.08835998,0.0001645,53.2158,98.668,118.3286,241.7872,0.00042619,6.501e-05,0.0,0 STARLINK-3131,1 49427U 21104V   23071.04786849  .00006501  00000-0  42619-3 0  9990,2 49427  53.2158  98.6680 0001645 118.3286 241.7872 15.08835998 74620,6917.893,95.438,540.896,538.62,0.0
49427.0,STARLINK-3131,PAYLOAD,2023-03-12 05:55:05,15.08841189,0.0001636,53.2157,97.7761,119.241,240.8746,0.00062918,9.74e-05,0.0,0 STARLINK-3131,1 49427U 21104V   23071.24658906  .00009740  00000-0  62918-3 0  9996,2 49427  53.2157  97.7761 0001636 119.2410 240.8746 15.08841189 73569,6917.877,95.437,540.874,538.61,0.0
49427.0,STARLINK-3131,PAYLOAD,2023-03-12 09:05:51,15.08847578,0.0001569,53.2153,97.1814,119.1405,240.9744,0.00083994,0.00013108,0.0,0 STARLINK-3131,1 49427U 21104V   23071.37906873  .00013108  00000-0  83994-3 0  9999,2 49427  53.2153  97.1814 0001569 119.1405 240.9744 15.08847578 73585,6917.857,95.437,540.808,538.637,0.0
49427.0,STARLINK-3131,PAYLOAD,2023-03-13 02:35:05,15.0885161,0.0001555,53.2149,93.9096,117.5645,242.5505,0.00048126,7.382e-05,0.0,0 STARLINK-3131,1 49427U 21104V   23072.10770593  .00007382  00000-0  48126-3 0  9994,2 49427  53.2149  93.9096 0001555 117.5645 242.5505 15.08851610 74787,6917.845,95.437,540.786,538.634,0.0
49427.0,STARLINK-3131,PAYLOAD,2023-03-13 10:32:01,15.08857512,0.0001505,53.2146,92.4219,118.3151,241.7993,0.00053871,8.3e-05,0.0,0 STARLINK-3131,1 49427U 21104V   23072.43890200  .00008300  00000-0  53871-3 0  9992,2 49427  53.2146  92.4219 0001505 118.3151 241.7993 15.08857512 73745,6917.827,95.436,540.733,538.651,0.0
49427.0,STARLINK-3131,PAYLOAD,2023-03-14 05:36:39,15.08836639,0.0001326,53.2151,88.8544,91.8748,268.2396,-2.4667e-07,-2.92e-06,0.0,0 STARLINK-3131,1 49427U 21104V   23073.23378995 -.00000292  00000-0 -24667-6 0  9991,2 49427  53.2151  88.8544 0001326  91.8748 268.2396 15.08836639 74951,6917.891,95.438,540.673,538.838,0.0
49427.0,STARLINK-3131,PAYLOAD,2023-03-14 07:12:02,15.08836388,0.0001634,53.2152,88.556,110.5022,249.6146,-1.9686e-05,-6.01e-06,0.0,0 STARLINK-3131,1 49427U 21104V   23073.30002932 -.00000601  00000-0 -19686-4 0  9991,2 49427  53.2152  88.5560 0001634 110.5022 249.6146 15.08836388 73870,6917.891,95.438,540.887,538.626,0.0
49427.0,STARLINK-3131,PAYLOAD,2023-03-14 18:19:44,15.088435,0.0001432,53.2149,86.4745,87.1162,272.9994,0.00018983,2.735e-05,0.0,0 STARLINK-3131,1 49427U 21104V   23073.76371023  .00002735  00000-0  18983-3 0  9997,2 49427  53.2149  86.4745 0001432  87.1162 272.9994 15.08843500 73940,6917.87,95.437,540.725,538.744,0.0
49427.0,STARLINK-3131,PAYLOAD,2023-03-15 00:41:16,15.08848201,0.0001399,53.2146,85.2843,89.6517,270.4635,0.00026798,3.98e-05,0.0,0 STARLINK-3131,1 49427U 21104V   23074.02866837  .00003980  00000-0  26798-3 0  9995,2 49427  53.2146  85.2843 0001399  89.6517 270.4635 15.08848201 75070,6917.855,95.437,540.688,538.753,0.0
49427.0,STARLINK-3131,PAYLOAD,2023-03-15 07:02:49,15.08853663,0.0002019,53.2151,84.0953,89.0237,271.0986,0.00070082,0.00010887,0.0,0 STARLINK-3131,1 49427U 21104V   23074.29362915  .00010887  00000-0  70082-3 0  9991,2 49427  53.2151  84.0953 0002019  89.0237 271.0986 15.08853663 74026,6917.839,95.437,541.1,538.307,0.0
